{"spkid": "50775178", "covariance": {"labels": ["e", "q", "tp", "node", "peri", "i"], "data": [["1.065360890664013E-14", "-1.677324359270156E-14", "6.712240067900124E-13", "-1.065982754410644E-12", "1.394592327016864E-12", "-1.127151542546957E-12"], ["-1.677324359270156E-14", "2.656935387200707E-14", "-5.058879992099925E-13", "1.31406277305567E-12", "-1.981883406129976E-12", "1.601761748747715E-12"], ["6.712240067900124E-13", "-5.058879992099925E-13", "2.538348029847397E-9", "-1.699843552398403E-9", "1.104223397145734E-9", "-6.096931712282688E-10"], ["-1.065982754410644E-12", "1.31406277305567E-12", "-1.699843552398403E-9", "1.411990418147355E-9", "-8.758404288386158E-10", "4.14867774864957E-10"], ["1.394592327016864E-12", "-1.981883406129976E-12", "1.104223397145734E-9", "-8.758404288386158E-10", "7.215841524063752E-10", "-3.230400780783302E-10"], ["-1.127151542546957E-12", "1.601761748747715E-12", "-6.096931712282688E-10", "4.14867774864957E-10", "-3.230400780783302E-10", "7.477230970997148E-10"]], "elements": [{"value": ".7420023090721766", "title": "eccentricity", "units": null, "name": "e", "sigma": 1.03216320931528e-07, "label": "e"}, {"label": "q", "name": "q", "sigma": 1.6300108549334e-07, "units": "au", "value": ".4155136861552684", "title": "perihelion distance"}, {"label": "tp", "units": "TDB", "title": "time of perihelion passage", "value": "2458694.159293972104", "sigma": 5.03820208988027e-05, "name": "tp"}, {"label": "node", "units": "deg", "value": "213.9353453066067", "title": "longitude of the ascending node", "sigma": 3.75764609582562e-05, "name": "om"}, {"sigma": 2.68623184480859e-05, "name": "w", "title": "argument of perihelion", "value": "111.2944555892032", "units": "deg", "label": "peri"}, {"title": "inclination", "value": "53.25496601984084", "units": "deg", "sigma": 2.73445259073862e-05, "name": "i", "label": "i"}], "epoch": "2458709.5"}, "elements": [{"name": "e", "sigma": "1.0323E-7", "title": "eccentricity", "value": ".7417690960966998", "units": null, "label": "e"}, {"label": "a", "sigma": "5.0671E-8", "name": "a", "value": "1.610371298790445", "title": "semi-major axis", "units": "au"}, {"label": "q", "value": ".4158476361065881", "title": "perihelion distance", "units": "au", "name": "q", "sigma": "1.6301E-7"}, {"name": "i", "sigma": "2.7336E-5", "units": "deg", "value": "53.26440216732905", "title": "inclination; angle with respect to x-y ecliptic plane", "label": "i"}, {"label": "node", "sigma": "3.7572E-5", "name": "om", "value": "213.8797924443417", "title": "longitude of the ascending node", "units": "deg"}, {"label": "peri", "value": "111.3092720195839", "title": "argument of perihelion", "units": "deg", "sigma": "2.6887E-5", "name": "w"}, {"label": "M", "name": "ma", "sigma": "7.9295E-5", "units": "deg", "title": "mean anomaly", "value": "128.7352574708469"}, {"label": "tp", "name": "tp", "sigma": ".00015198", "units": "TDB", "value": "2460933.579171311977", "title": "time of perihelion passage"}, {"label": "period", "name": "per", "sigma": "3.523E-5", "units": "d", "value": "746.4272042913258", "title": "sidereal orbital period"}, {"sigma": "2.2764E-8", "name": "n", "units": "deg/d", "title": "mean motion", "value": ".4822975340800873", "label": "n"}, {"label": "Q", "title": "aphelion distance", "value": "2.804894961474302", "units": "au", "name": "ad", "sigma": "8.8258E-8"}], "epoch": "2461200.5"}